[{"OBJECT_NAME":"FLOCK 4Q-36","OBJECT_ID":"2023-174U","EPOCH":"2026-03-29T05:07:53.173632","MEAN_MOTION":15.52315171,"ECCENTRICITY":0.000749,"INCLINATION":97.3856,"RA_OF_ASC_NODE":178.0224,"ARG_OF_PERICENTER":85.0587,"MEAN_ANOMALY":275.152,"EPHEMERIS_TYPE":0,"CLASSIFICATION_TYPE":"U","NORAD_CAT_ID":58274,"ELEMENT_SET_NO":999,"REV_AT_EPOCH":13340,"BSTAR":0.00088431,"MEAN_MOTION_DOT":0.00054047,"MEAN_MOTION_DDOT":0},{"OBJECT_NAME":"FLOCK 4Q-12","OBJECT_ID":"2023-174V","EPOCH":"2026-03-29T04:43:22.380384","MEAN_MOTION":15.55509807,"ECCENTRICITY":0.0003576,"INCLINATION":97.3856,"RA_OF_ASC_NODE":177.9506,"ARG_OF_PERICENTER":89.9816,"MEAN_ANOMALY":270.1848,"EPHEMERIS_TYPE":0,"CLASSIFICATION_TYPE":"U","NORAD_CAT_ID":58275,"ELEMENT_SET_NO":999,"REV_AT_EPOCH":13342,"BSTAR":0.0018514,"MEAN_MOTION_DOT":0.00128221,"MEAN_MOTION_DDOT":0},{"OBJECT_NAME":"FLOCK 4Q-28","OBJECT_ID":"2023-174AA","EPOCH":"2026-03-29T04:42:53.044128","MEAN_MOTION":15.50329689,"ECCENTRICITY":0.0006596,"INCLINATION":97.3883,"RA_OF_ASC_NODE":177.061,"ARG_OF_PERICENTER":91.7375,"MEAN_ANOMALY":268.4633,"EPHEMERIS_TYPE":0,"CLASSIFICATION_TYPE":"U","NORAD_CAT_ID":58280,"ELEMENT_SET_NO":999,"REV_AT_EPOCH":13333,"BSTAR":0.00075688,"MEAN_MOTION_DOT":0.00043021,"MEAN_MOTION_DDOT":0},{"OBJECT_NAME":"FLOCK 4Q-27","OBJECT_ID":"2023-174AC","EPOCH":"2026-03-29T04:37:33.772800","MEAN_MOTION":15.50275669,"ECCENTRICITY":0.000619,"INCLINATION":97.3827,"RA_OF_ASC_NODE":176.5796,"ARG_OF_PERICENTER":90.1799,"MEAN_ANOMALY":270.0162,"EPHEMERIS_TYPE":0,"CLASSIFICATION_TYPE":"U","NORAD_CAT_ID":58282,"ELEMENT_SET_NO":999,"REV_AT_EPOCH":13334,"BSTAR":0.00082049,"MEAN_MOTION_DOT":0.00046572,"MEAN_MOTION_DDOT":0},{"OBJECT_NAME":"FLOCK 4Q-26","OBJECT_ID":"2023-174AE","EPOCH":"2026-03-29T04:59:34.841760","MEAN_MOTION":15.52181789,"ECCENTRICITY":0.0007069,"INCLINATION":97.3878,"RA_OF_ASC_NODE":178.1,"ARG_OF_PERICENTER":88.5015,"MEAN_ANOMALY":271.7047,"EPHEMERIS_TYPE":0,"CLASSIFICATION_TYPE":"U","NORAD_CAT_ID":58284,"ELEMENT_SET_NO":999,"REV_AT_EPOCH":13340,"BSTAR":0.00071775,"MEAN_MOTION_DOT":0.00043578,"MEAN_MOTION_DDOT":0},{"OBJECT_NAME":"FLOCK 4Q-31","OBJECT_ID":"2023-174AF","EPOCH":"2026-03-29T04:18:02.065248","MEAN_MOTION":15.51918857,"ECCENTRICITY":0.0007203,"INCLINATION":97.3917,"RA_OF_ASC_NODE":177.7128,"ARG_OF_PERICENTER":91.8299,"MEAN_ANOMALY":268.3779,"EPHEMERIS_TYPE":0,"CLASSIFICATION_TYPE":"U","NORAD_CAT_ID":58285,"ELEMENT_SET_NO":999,"REV_AT_EPOCH":13335,"BSTAR":0.00093155,"MEAN_MOTION_DOT":0.00056148,"MEAN_MOTION_DDOT":0},{"OBJECT_NAME":"FLOCK 4Q-30","OBJECT_ID":"2023-174AG","EPOCH":"2026-03-29T05:29:44.920032","MEAN_MOTION":15.52162327,"ECCENTRICITY":0.0005815,"INCLINATION":97.3942,"RA_OF_ASC_NODE":177.9553,"ARG_OF_PERICENTER":92.5975,"MEAN_ANOMALY":267.5943,"EPHEMERIS_TYPE":0,"CLASSIFICATION_TYPE":"U","NORAD_CAT_ID":58286,"ELEMENT_SET_NO":999,"REV_AT_EPOCH":13337,"BSTAR":0.0009513,"MEAN_MOTION_DOT":0.00057833,"MEAN_MOTION_DDOT":0},{"OBJECT_NAME":"PELICAN-1","OBJECT_ID":"2023-174AS","EPOCH":"2026-03-28T04:48:12.165120","MEAN_MOTION":15.6314368,"ECCENTRICITY":0.00093863,"INCLINATION":97.3996,"RA_OF_ASC_NODE":182.8276,"ARG_OF_PERICENTER":241.6544,"MEAN_ANOMALY":118.3768,"EPHEMERIS_TYPE":0,"CLASSIFICATION_TYPE":"U","NORAD_CAT_ID":58296,"ELEMENT_SET_NO":999,"REV_AT_EPOCH":13345,"BSTAR":0.00029225921,"MEAN_MOTION_DOT":0.00026623,"MEAN_MOTION_DDOT":0},{"OBJECT_NAME":"FLOCK 4Q-29","OBJECT_ID":"2023-174BA","EPOCH":"2026-03-29T05:00:09.266976","MEAN_MOTION":15.50859878,"ECCENTRICITY":0.000649,"INCLINATION":97.3929,"RA_OF_ASC_NODE":177.4885,"ARG_OF_PERICENTER":82.97,"MEAN_ANOMALY":277.229,"EPHEMERIS_TYPE":0,"CLASSIFICATION_TYPE":"U","NORAD_CAT_ID":58304,"ELEMENT_SET_NO":999,"REV_AT_EPOCH":13334,"BSTAR":0.00080399,"MEAN_MOTION_DOT":0.0004659,"MEAN_MOTION_DDOT":0},{"OBJECT_NAME":"FLOCK 4Q-22","OBJECT_ID":"2023-174BC","EPOCH":"2026-03-29T04:45:39.833280","MEAN_MOTION":15.53768032,"ECCENTRICITY":0.0005252,"INCLINATION":97.3825,"RA_OF_ASC_NODE":177.7184,"ARG_OF_PERICENTER":86.2589,"MEAN_ANOMALY":273.9265,"EPHEMERIS_TYPE":0,"CLASSIFICATION_TYPE":"U","NORAD_CAT_ID":58306,"ELEMENT_SET_NO":999,"REV_AT_EPOCH":13342,"BSTAR":0.00081782,"MEAN_MOTION_DOT":0.00052621,"MEAN_MOTION_DDOT":0},{"OBJECT_NAME":"FLOCK 4Q-23","OBJECT_ID":"2023-174BD","EPOCH":"2026-03-29T04:16:49.106496","MEAN_MOTION":15.57178874,"ECCENTRICITY":0.0005735,"INCLINATION":97.3939,"RA_OF_ASC_NODE":179.3913,"ARG_OF_PERICENTER":78.7669,"MEAN_ANOMALY":281.423,"EPHEMERIS_TYPE":0,"CLASSIFICATION_TYPE":"U","NORAD_CAT_ID":58307,"ELEMENT_SET_NO":999,"REV_AT_EPOCH":13346,"BSTAR":0.00080211,"MEAN_MOTION_DOT":0.00058534,"MEAN_MOTION_DDOT":0},{"OBJECT_NAME":"FLOCK 4Q-33","OBJECT_ID":"2023-174BE","EPOCH":"2026-03-29T04:43:53.834304","MEAN_MOTION":15.52703616,"ECCENTRICITY":0.0006491,"INCLINATION":97.3864,"RA_OF_ASC_NODE":177.6317,"ARG_OF_PERICENTER":72.4605,"MEAN_ANOMALY":287.7357,"EPHEMERIS_TYPE":0,"CLASSIFICATION_TYPE":"U","NORAD_CAT_ID":58308,"ELEMENT_SET_NO":999,"REV_AT_EPOCH":13340,"BSTAR":0.00076768,"MEAN_MOTION_DOT":0.00047512,"MEAN_MOTION_DDOT":0},{"OBJECT_NAME":"FLOCK 4Q-35","OBJECT_ID":"2023-174BF","EPOCH":"2026-03-29T04:44:36.432960","MEAN_MOTION":15.51621655,"ECCENTRICITY":0.0006489,"INCLINATION":97.3887,"RA_OF_ASC_NODE":177.771,"ARG_OF_PERICENTER":87.3647,"MEAN_ANOMALY":272.8348,"EPHEMERIS_TYPE":0,"CLASSIFICATION_TYPE":"U","NORAD_CAT_ID":58309,"ELEMENT_SET_NO":999,"REV_AT_EPOCH":13338,"BSTAR":0.00082496,"MEAN_MOTION_DOT":0.00049135,"MEAN_MOTION_DDOT":0},{"OBJECT_NAME":"FLOCK 4Q-34","OBJECT_ID":"2023-174BN","EPOCH":"2026-03-29T04:28:11.765856","MEAN_MOTION":15.57444018,"ECCENTRICITY":0.0005753,"INCLINATION":97.3841,"RA_OF_ASC_NODE":178.7791,"ARG_OF_PERICENTER":78.3861,"MEAN_ANOMALY":281.804,"EPHEMERIS_TYPE":0,"CLASSIFICATION_TYPE":"U","NORAD_CAT_ID":58316,"ELEMENT_SET_NO":999,"REV_AT_EPOCH":13347,"BSTAR":0.00083567,"MEAN_MOTION_DOT":0.00061616,"MEAN_MOTION_DDOT":0},{"OBJECT_NAME":"FLOCK 4Q-7","OBJECT_ID":"2023-174BQ","EPOCH":"2026-03-29T04:21:12.216960","MEAN_MOTION":15.50608614,"ECCENTRICITY":0.0006729,"INCLINATION":97.3917,"RA_OF_ASC_NODE":177.2595,"ARG_OF_PERICENTER":76.5154,"MEAN_ANOMALY":283.6847,"EPHEMERIS_TYPE":0,"CLASSIFICATION_TYPE":"U","NORAD_CAT_ID":58318,"ELEMENT_SET_NO":999,"REV_AT_EPOCH":13333,"BSTAR":0.0008775,"MEAN_MOTION_DOT":0.00050435,"MEAN_MOTION_DDOT":0},{"OBJECT_NAME":"FLOCK 4Q-2","OBJECT_ID":"2023-174BS","EPOCH":"2026-03-29T05:29:59.341056","MEAN_MOTION":15.4607502,"ECCENTRICITY":0.0007128,"INCLINATION":97.3844,"RA_OF_ASC_NODE":174.9852,"ARG_OF_PERICENTER":79.3957,"MEAN_ANOMALY":280.8094,"EPHEMERIS_TYPE":0,"CLASSIFICATION_TYPE":"U","NORAD_CAT_ID":58320,"ELEMENT_SET_NO":999,"REV_AT_EPOCH":13323,"BSTAR":0.00069483,"MEAN_MOTION_DOT":0.00034022,"MEAN_MOTION_DDOT":0},{"OBJECT_NAME":"FLOCK 4Q-9","OBJECT_ID":"2023-174BU","EPOCH":"2026-03-29T04:30:04.146336","MEAN_MOTION":15.4575803,"ECCENTRICITY":0.0007373,"INCLINATION":97.3881,"RA_OF_ASC_NODE":174.9865,"ARG_OF_PERICENTER":81.2634,"MEAN_ANOMALY":278.945,"EPHEMERIS_TYPE":0,"CLASSIFICATION_TYPE":"U","NORAD_CAT_ID":58322,"ELEMENT_SET_NO":999,"REV_AT_EPOCH":13321,"BSTAR":0.00080147,"MEAN_MOTION_DOT":0.0003886,"MEAN_MOTION_DDOT":0}]
