FLOCK 4Q-36             
1 58274U 23174U   26088.21380988  .00054047  00000+0  88431-3 0  9992
2 58274  97.3856 178.0224 0007490  85.0587 275.1520 15.52315171133407
FLOCK 4Q-12             
1 58275U 23174V   26088.19678681  .00128221  00000+0  18514-2 0  9990
2 58275  97.3856 177.9506 0003576  89.9816 270.1848 15.55509807133422
FLOCK 4Q-28             
1 58280U 23174AA  26088.19644727  .00043021  00000+0  75688-3 0  9990
2 58280  97.3883 177.0610 0006596  91.7375 268.4633 15.50329689133336
FLOCK 4Q-27             
1 58282U 23174AC  26088.19275200  .00046572  00000+0  82049-3 0  9991
2 58282  97.3827 176.5796 0006190  90.1799 270.0162 15.50275669133343
FLOCK 4Q-26             
1 58284U 23174AE  26088.20804215  .00043578  00000+0  71775-3 0  9996
2 58284  97.3878 178.1000 0007069  88.5015 271.7047 15.52181789133403
FLOCK 4Q-31             
1 58285U 23174AF  26088.17919057  .00056148  00000+0  93155-3 0  9997
2 58285  97.3917 177.7128 0007203  91.8299 268.3779 15.51918857133356
FLOCK 4Q-30             
1 58286U 23174AG  26088.22899213  .00057833  00000+0  95130-3 0  9992
2 58286  97.3942 177.9553 0005815  92.5975 267.5943 15.52162327133375
PELICAN-1               
1 58296U 23174AS  26087.20014080  .00026623  00000+0  29226-3 0  9997
2 58296  97.3996 182.8276 0009386 241.6544 118.3768 15.63143680133458
FLOCK 4Q-29             
1 58304U 23174BA  26088.20844059  .00046590  00000+0  80399-3 0  9998
2 58304  97.3929 177.4885 0006490  82.9700 277.2290 15.50859878133345
FLOCK 4Q-22             
1 58306U 23174BC  26088.19837770  .00052621  00000+0  81782-3 0  9999
2 58306  97.3825 177.7184 0005252  86.2589 273.9265 15.53768032133422
FLOCK 4Q-23             
1 58307U 23174BD  26088.17834614  .00058534  00000+0  80211-3 0  9997
2 58307  97.3939 179.3913 0005735  78.7669 281.4230 15.57178874133461
FLOCK 4Q-33             
1 58308U 23174BE  26088.19715086  .00047512  00000+0  76768-3 0  9997
2 58308  97.3864 177.6317 0006491  72.4605 287.7357 15.52703616133405
FLOCK 4Q-35             
1 58309U 23174BF  26088.19764390  .00049135  00000+0  82496-3 0  9998
2 58309  97.3887 177.7710 0006489  87.3647 272.8348 15.51621655133380
FLOCK 4Q-34             
1 58316U 23174BN  26088.18624729  .00061616  00000+0  83567-3 0  9994
2 58316  97.3841 178.7791 0005753  78.3861 281.8040 15.57444018133470
FLOCK 4Q-7              
1 58318U 23174BQ  26088.18139140  .00050435  00000+0  87750-3 0  9999
2 58318  97.3917 177.2595 0006729  76.5154 283.6847 15.50608614133338
FLOCK 4Q-2              
1 58320U 23174BS  26088.22915904  .00034022  00000+0  69483-3 0  9994
2 58320  97.3844 174.9852 0007128  79.3957 280.8094 15.46075020133232
FLOCK 4Q-9              
1 58322U 23174BU  26088.18754799  .00038860  00000+0  80147-3 0  9998
2 58322  97.3881 174.9865 0007373  81.2634 278.9450 15.45758030133215
